{
  "links" : {
    "next" : "https://api.nasa.gov/neo/rest/v1/feed?start_date=2001-12-09&end_date=2001-12-09&detailed=true&api_key=t0TVs3DtDT2H8Oy2Zy8m2eVrNsAVKAexjcZXUckd",
    "prev" : "https://api.nasa.gov/neo/rest/v1/feed?start_date=2001-12-07&end_date=2001-12-07&detailed=true&api_key=t0TVs3DtDT2H8Oy2Zy8m2eVrNsAVKAexjcZXUckd",
    "self" : "https://api.nasa.gov/neo/rest/v1/feed?start_date=2001-12-08&end_date=2001-12-08&detailed=true&api_key=t0TVs3DtDT2H8Oy2Zy8m2eVrNsAVKAexjcZXUckd"
  },
  "element_count" : 6,
  "near_earth_objects" : {
    "2001-12-08" : [ {
      "links" : {
        "self" : "https://api.nasa.gov/neo/rest/v1/neo/2413123?api_key=t0TVs3DtDT2H8Oy2Zy8m2eVrNsAVKAexjcZXUckd"
      },
      "neo_reference_id" : "2413123",
      "name" : "413123 (2001 XS1)",
      "nasa_jpl_url" : "http://ssd.jpl.nasa.gov/sbdb.cgi?sstr=2413123",
      "absolute_magnitude_h" : 19.0,
      "estimated_diameter" : {
        "kilometers" : {
          "estimated_diameter_min" : 0.4212646106,
          "estimated_diameter_max" : 0.9419763057
        },
        "meters" : {
          "estimated_diameter_min" : 421.2646105562,
          "estimated_diameter_max" : 941.9763057186
        },
        "miles" : {
          "estimated_diameter_min" : 0.2617616123,
          "estimated_diameter_max" : 0.5853167591
        },
        "feet" : {
          "estimated_diameter_min" : 1382.1017848971,
          "estimated_diameter_max" : 3090.4735428537
        }
      },
      "is_potentially_hazardous_asteroid" : false,
      "close_approach_data" : [ {
        "close_approach_date" : "2001-12-08",
        "epoch_date_close_approach" : 1007798400000,
        "relative_velocity" : {
          "kilometers_per_second" : "7.3131092717",
          "kilometers_per_hour" : "26327.1933781623",
          "miles_per_hour" : "16358.694129892"
        },
        "miss_distance" : {
          "astronomical" : "0.1944313332",
          "lunar" : "75.6337890625",
          "kilometers" : "29086514",
          "miles" : "18073522"
        },
        "orbiting_body" : "Earth"
      } ],
      "orbital_data" : {
        "orbit_id" : "64",
        "orbit_determination_date" : "2017-04-06 09:21:35",
        "orbit_uncertainty" : "0",
        "minimum_orbit_intersection" : ".206278",
        "jupiter_tisserand_invariant" : "3.118",
        "epoch_osculation" : "2458000.5",
        "eccentricity" : ".5560099490842421",
        "semi_major_axis" : "2.670033345646399",
        "inclination" : "10.93590309556891",
        "ascending_node_longitude" : "266.923916726781",
        "orbital_period" : "1593.578474148391",
        "perihelion_distance" : "1.185468241080316",
        "perihelion_argument" : "164.8463866470759",
        "aphelion_distance" : "4.154598450212482",
        "perihelion_time" : "2458613.868480452209",
        "mean_anomaly" : "221.4359715916734",
        "mean_motion" : ".2259066659345936",
        "equinox" : "J2000"
      }
    }, {
      "links" : {
        "self" : "https://api.nasa.gov/neo/rest/v1/neo/3309287?api_key=t0TVs3DtDT2H8Oy2Zy8m2eVrNsAVKAexjcZXUckd"
      },
      "neo_reference_id" : "3309287",
      "name" : "(2005 YT8)",
      "nasa_jpl_url" : "http://ssd.jpl.nasa.gov/sbdb.cgi?sstr=3309287",
      "absolute_magnitude_h" : 21.6,
      "estimated_diameter" : {
        "kilometers" : {
          "estimated_diameter_min" : 0.1272198785,
          "estimated_diameter_max" : 0.2844722965
        },
        "meters" : {
          "estimated_diameter_min" : 127.2198785394,
          "estimated_diameter_max" : 284.4722965033
        },
        "miles" : {
          "estimated_diameter_min" : 0.0790507431,
          "estimated_diameter_max" : 0.1767628354
        },
        "feet" : {
          "estimated_diameter_min" : 417.3880663071,
          "estimated_diameter_max" : 933.3080892598
        }
      },
      "is_potentially_hazardous_asteroid" : false,
      "close_approach_data" : [ {
        "close_approach_date" : "2001-12-08",
        "epoch_date_close_approach" : 1007798400000,
        "relative_velocity" : {
          "kilometers_per_second" : "10.0091033087",
          "kilometers_per_hour" : "36032.7719111965",
          "miles_per_hour" : "22389.3631911543"
        },
        "miss_distance" : {
          "astronomical" : "0.1252906705",
          "lunar" : "48.7380714417",
          "kilometers" : "18743218",
          "miles" : "11646496"
        },
        "orbiting_body" : "Earth"
      } ],
      "orbital_data" : {
        "orbit_id" : "25",
        "orbit_determination_date" : "2017-04-06 09:09:36",
        "orbit_uncertainty" : "5",
        "minimum_orbit_intersection" : ".0592846",
        "jupiter_tisserand_invariant" : "3.153",
        "epoch_osculation" : "2458000.5",
        "eccentricity" : ".5929358996644919",
        "semi_major_axis" : "2.540138629899797",
        "inclination" : "10.9307018060901",
        "ascending_node_longitude" : "283.0866943555334",
        "orbital_period" : "1478.71526325547",
        "perihelion_distance" : "1.033999246107631",
        "perihelion_argument" : "165.753616652442",
        "aphelion_distance" : "4.046278013691963",
        "perihelion_time" : "2458174.359515489124",
        "mean_anomaly" : "317.6731050721078",
        "mean_motion" : ".2434545777308344",
        "equinox" : "J2000"
      }
    }, {
      "links" : {
        "self" : "https://api.nasa.gov/neo/rest/v1/neo/3619732?api_key=t0TVs3DtDT2H8Oy2Zy8m2eVrNsAVKAexjcZXUckd"
      },
      "neo_reference_id" : "3619732",
      "name" : "(2012 XN55)",
      "nasa_jpl_url" : "http://ssd.jpl.nasa.gov/sbdb.cgi?sstr=3619732",
      "absolute_magnitude_h" : 23.9,
      "estimated_diameter" : {
        "kilometers" : {
          "estimated_diameter_min" : 0.04411182,
          "estimated_diameter_max" : 0.0986370281
        },
        "meters" : {
          "estimated_diameter_min" : 44.1118199997,
          "estimated_diameter_max" : 98.6370281305
        },
        "miles" : {
          "estimated_diameter_min" : 0.0274098057,
          "estimated_diameter_max" : 0.0612901888
        },
        "feet" : {
          "estimated_diameter_min" : 144.7238235278,
          "estimated_diameter_max" : 323.6123073718
        }
      },
      "is_potentially_hazardous_asteroid" : false,
      "close_approach_data" : [ {
        "close_approach_date" : "2001-12-08",
        "epoch_date_close_approach" : 1007798400000,
        "relative_velocity" : {
          "kilometers_per_second" : "15.6984645508",
          "kilometers_per_hour" : "56514.4723828418",
          "miles_per_hour" : "35115.8953536608"
        },
        "miss_distance" : {
          "astronomical" : "0.0992074289",
          "lunar" : "38.5916900635",
          "kilometers" : "14841221",
          "miles" : "9221907"
        },
        "orbiting_body" : "Earth"
      } ],
      "orbital_data" : {
        "orbit_id" : "9",
        "orbit_determination_date" : "2017-04-06 08:47:43",
        "orbit_uncertainty" : "7",
        "minimum_orbit_intersection" : ".0663382",
        "jupiter_tisserand_invariant" : "7.542",
        "epoch_osculation" : "2458000.5",
        "eccentricity" : ".4539877207312187",
        "semi_major_axis" : ".7485708009210011",
        "inclination" : "29.06260463753233",
        "ascending_node_longitude" : "256.3002229405231",
        "orbital_period" : "236.5635076704708",
        "perihelion_distance" : ".408728849204933",
        "perihelion_argument" : "14.98105047504602",
        "aphelion_distance" : "1.088412752637069",
        "perihelion_time" : "2458066.546637794894",
        "mean_anomaly" : "259.490881580592",
        "mean_motion" : "1.521790083115754",
        "equinox" : "J2000"
      }
    } ]
  }
}